TIBA-1                  
1 44800U 19080A   26159.15947676  .00000171  00000+0  00000+0 0  9999
2 44800   0.0517 345.6993 0002186 114.5888 249.1933  1.00274267 23962
INMARSAT GX5            
1 44801U 19080B   26159.13198597  .00000090  00000+0  00000+0 0  9998
2 44801   0.0374   8.0532 0002469  67.4614 239.5687  1.00270413  6699
JCSAT-18 (KACIFIC 1)    
1 44868U 19091A   26158.59452578 -.00000185  00000+0  00000+0 0  9990
2 44868   0.0241 231.6266 0000127   1.2932  27.1304  1.00272739 23915
ELEKTRO-L 3             
1 44903U 19095A   26159.14489939 -.00000081  00000+0  00000+0 0  9992
2 44903   0.2329  81.1938 0001467 351.2141 312.2467  1.00272636 23617
SHIJIAN-20 (SJ-20)      
1 44910U 19097A   26159.01146691  .00000151  00000+0  00000+0 0  9990
2 44910   4.8946  75.1748 0013806  52.9393 177.1972  1.00274774 23609
TJS-5                   
1 44978U 20002A   26159.00854968 -.00000327  00000+0  00000+0 0  9990
2 44978   0.0347 284.3079 0007577 122.7607 319.9111  1.00270307 23619
GSAT-30                 
1 45026U 20005A   26159.14628604 -.00000149  00000+0  00000+0 0  9991
2 45026   0.0511 106.9047 0003464 337.4024 307.8873  1.00269701 23415
EUTELSAT KONNECT        
1 45027U 20005B   26159.13129264  .00000065  00000+0  00000+0 0  9995
2 45027   0.0702  98.1294 0001095 137.4426  75.4654  1.00269686 24245
JCSAT-17                
1 45245U 20013A   26159.01418302 -.00000307  00000+0  00000+0 0  9997
2 45245   5.3923 356.7724 0002850  77.1908 323.5687  1.00272229 23144
GEO-KOMPSAT-2B          
1 45246U 20013B   26159.17961502 -.00000328  00000+0  00000+0 0  9993
2 45246   0.0407 165.0522 0000301 151.9127 132.5337  1.00271048 23186
BEIDOU-3 G2             
1 45344U 20017A   26159.14567939 -.00000126  00000+0  00000+0 0  9995
2 45344   2.8454  47.2011 0002589  27.6442 314.1894  1.00273948 23165
AEHF-6 (USA 298)        
1 45465U 20022B   26159.01461637 -.00000284  00000+0  00000+0 0  9994
2 45465   2.5691 301.0104 0043131  17.4511  80.9292  1.00275696 22920
BEIDOU-3 G3             
1 45807U 20040A   26159.08044132 -.00000339  00000+0  00000+0 0  9999
2 45807   2.4242  67.4263 0002946 338.1102 350.4808  1.00272395 21973
APSTAR-6D               
1 45863U 20045A   26159.01000512 -.00000302  00000+0  00000+0 0  9993
2 45863   0.0489 106.8067 0002234 339.1651 308.0700  1.00270839 21760
KOREASAT 116            
1 45920U 20048A   26159.08156799 -.00000347  00000+0  00000+0 0  9995
2 45920   0.0103 309.5765 0001020 120.2008 332.2804  1.00273474 21549
EXPRESS 103             
1 45985U 20053A   26159.00638300 -.00000266  00000+0  00000+0 0  9997
2 45985   0.0219 278.4547 0000484 124.2603 312.4882  1.00273722 21551
EXPRESS 80              
1 45986U 20053B   26159.06548244 -.00000121  00000+0  00000+0 0  9991
2 45986   0.0209 296.5836 0002256 218.5880 204.8483  1.00272944 21530
BSAT-4B                 
1 46112U 20056A   26158.99160605 -.00000335  00000+0  00000+0 0  9995
2 46112   0.0494 168.0088 0004051 306.4242 248.7625  1.00270089 21290
MEV-2                   
1 46113U 20056B   26158.91574572  .00000004  00000+0  00000+0 0  9992
2 46113   0.0048 329.6678 0000447 189.7889  65.5178  1.00271594 80464
GALAXY 30 (G-30)        
1 46114U 20056C   26158.96248220  .00000052  00000+0  00000+0 0  9999
2 46114   0.0178 358.1248 0002238  76.5119  43.2111  1.00272767 21208
GAOFEN-13 01            
1 46610U 20071A   26159.08191465 -.00000347  00000+0  00000+0 0  9997
2 46610   0.4967  84.9485 0041138 123.1954 195.9844  1.00276187 20829
TIANTONG-1 2            
1 46916U 20082A   26159.01201634 -.00000341  00000+0  00000+0 0  9995
2 46916   0.8027 326.1304 0001432 110.1520 309.3763  1.00268245 20566
LUCAS (JDRS-1)          
1 47202U 20089A   26159.07654130 -.00000221  00000+0  00000+0 0  9997
2 47202   0.0292 275.6334 0002384 152.6855 306.4957  1.00273710 20321
SXM-7                   
1 47240U 20096A   26158.61393168 -.00000190  00000+0  00000+0 0  9992
2 47240   0.0378 141.6884 0004062 342.0661 268.1326  1.00271437  7340
CMS-01                  
1 47256U 20099A   26159.07498130 -.00000149  00000+0  00000+0 0  9992
2 47256   0.0742  99.4877 0003574 183.1696  83.7932  1.00270201 20104
TURKSAT 5A              
1 47306U 21001A   26159.02145726  .00000169  00000+0  00000+0 0  9998
2 47306   0.0137  47.3009 0000106  19.5089 228.2754  1.00271646 19877
TIANTONG-1 3            
1 47321U 21003A   26159.14602605 -.00000142  00000+0  00000+0 0  9996
2 47321   1.7637 338.7345 0003520 104.3376 307.5884  1.00272615 19874
TJS-6                   
1 47613U 21010A   26157.09751244  .00000056  00000+0  00000+0 0  9997
2 47613   0.2892  89.8415 0005375  54.6095 323.6795  1.00269486 19706
SBIRS GEO-5 (USA 315)   
1 48618U 21042A   26159.00577632 -.00000258  00000+0  00000+0 0  9993
2 48618   5.1158 329.0470 0001633 121.9585 261.2920  1.00271284 18688
FENGYUN 4B              
1 48808U 21047A   26156.58393231 -.00000317  00000+0  00000+0 0  9996
2 48808   0.1239  75.7773 0005177 289.8220 203.2690  1.00266147 18459
SXM-8                   
1 48838U 21049A   26158.61393168 -.00000190  00000+0  00000+0 0  9995
2 48838   0.0192  13.5881 0005048  19.7069 358.5975  1.00270420 18489
TIANLIAN 1-05           
1 49011U 21063A   26159.20443983  .00000124  00000+0  00000+0 0  9998
2 49011   1.5697  80.7798 0000920 319.1569 307.0868  1.00271847 17986
