OBJECT_NAME,OBJECT_ID,EPOCH,MEAN_MOTION,ECCENTRICITY,INCLINATION,RA_OF_ASC_NODE,ARG_OF_PERICENTER,MEAN_ANOMALY,EPHEMERIS_TYPE,CLASSIFICATION_TYPE,NORAD_CAT_ID,ELEMENT_SET_NO,REV_AT_EPOCH,BSTAR,MEAN_MOTION_DOT,MEAN_MOTION_DDOT
TIBA-1,2019-080A,2026-06-08T03:49:38.792064,1.00274267,.0002186,0.0517,345.6993,114.5888,249.1933,0,U,44800,999,2396,0,.171E-5,0
INMARSAT GX5,2019-080B,2026-06-08T03:10:03.587808,1.00270413,.0002469,0.0374,8.0532,67.4614,239.5687,0,U,44801,999,669,0,.9E-6,0
JCSAT-18 (KACIFIC 1),2019-091A,2026-06-07T14:16:07.027392,1.00272739,.0000127,0.0241,231.6266,1.2932,27.1304,0,U,44868,999,2391,0,-.185E-5,0
ELEKTRO-L 3,2019-095A,2026-06-08T03:28:39.307296,1.00272636,.0001467,0.2329,81.1938,351.2141,312.2467,0,U,44903,999,2361,0,-.81E-6,0
SHIJIAN-20 (SJ-20),2019-097A,2026-06-08T00:16:30.741024,1.00274774,.0013806,4.8946,75.1748,52.9393,177.1972,0,U,44910,999,2360,0,.151E-5,0
TJS-5,2020-002A,2026-06-08T00:12:18.692352,1.00270307,.0007577,0.0347,284.3079,122.7607,319.9111,0,U,44978,999,2361,0,-.327E-5,0
GSAT-30,2020-005A,2026-06-08T03:30:39.113856,1.00269701,.0003464,0.0511,106.9047,337.4024,307.8873,0,U,45026,999,2341,0,-.149E-5,0
EUTELSAT KONNECT,2020-005B,2026-06-08T03:09:03.684096,1.00269686,.0001095,0.0702,98.1294,137.4426,75.4654,0,U,45027,999,2424,0,.65E-6,0
JCSAT-17,2020-013A,2026-06-08T00:20:25.412928,1.00272229,.000285,5.3923,356.7724,77.1908,323.5687,0,U,45245,999,2314,0,-.307E-5,0
GEO-KOMPSAT-2B,2020-013B,2026-06-08T04:18:38.737728,1.00271048,.0000301,0.0407,165.0522,151.9127,132.5337,0,U,45246,999,2318,0,-.328E-5,0
BEIDOU-3 G2,2020-017A,2026-06-08T03:29:46.699296,1.00273948,.0002589,2.8454,47.2011,27.6442,314.1894,0,U,45344,999,2316,0,-.126E-5,0
AEHF-6 (USA 298),2020-022B,2026-06-08T00:21:02.854368,1.00275696,.0043131,2.5691,301.0104,17.4511,80.9292,0,U,45465,999,2292,0,-.284E-5,0
BEIDOU-3 G3,2020-040A,2026-06-08T01:55:50.130048,1.00272395,.0002946,2.4242,67.4263,338.1102,350.4808,0,U,45807,999,2197,0,-.339E-5,0
APSTAR-6D,2020-045A,2026-06-08T00:14:24.442368,1.00270839,.0002234,0.0489,106.8067,339.1651,308.0700,0,U,45863,999,2176,0,-.302E-5,0
KOREASAT 116,2020-048A,2026-06-08T01:57:27.474336,1.00273474,.000102,0.0103,309.5765,120.2008,332.2804,0,U,45920,999,2154,0,-.347E-5,0
EXPRESS 103,2020-053A,2026-06-08T00:09:11.491200,1.00273722,.0000484,0.0219,278.4547,124.2603,312.4882,0,U,45985,999,2155,0,-.266E-5,0
EXPRESS 80,2020-053B,2026-06-08T01:34:17.682816,1.00272944,.0002256,0.0209,296.5836,218.5880,204.8483,0,U,45986,999,2153,0,-.121E-5,0
BSAT-4B,2020-056A,2026-06-07T23:47:54.762720,1.00270089,.0004051,0.0494,168.0088,306.4242,248.7625,0,U,46112,999,2129,0,-.335E-5,0
MEV-2,2020-056B,2026-06-07T21:58:40.430208,1.00271594,.0000447,0.0048,329.6678,189.7889,65.5178,0,U,46113,999,8046,0,.4E-7,0
GALAXY 30 (G-30),2020-056C,2026-06-07T23:05:58.462080,1.00272767,.0002238,0.0178,358.1248,76.5119,43.2111,0,U,46114,999,2120,0,.52E-6,0
GAOFEN-13 01,2020-071A,2026-06-08T01:57:57.425760,1.00276187,.0041138,0.4967,84.9485,123.1954,195.9844,0,U,46610,999,2082,0,-.347E-5,0
TIANTONG-1 2,2020-082A,2026-06-08T00:17:18.211776,1.00268245,.0001432,0.8027,326.1304,110.1520,309.3763,0,U,46916,999,2056,0,-.341E-5,0
LUCAS (JDRS-1),2020-089A,2026-06-08T01:50:13.168320,1.00273710,.0002384,0.0292,275.6334,152.6855,306.4957,0,U,47202,999,2032,0,-.221E-5,0
SXM-7,2020-096A,2026-06-07T14:44:03.697152,1.00271437,.0004062,0.0378,141.6884,342.0661,268.1326,0,U,47240,999,734,0,-.19E-5,0
CMS-01,2020-099A,2026-06-08T01:47:58.384320,1.00270201,.0003574,0.0742,99.4877,183.1696,83.7932,0,U,47256,999,2010,0,-.149E-5,0
TURKSAT 5A,2021-001A,2026-06-08T00:30:53.907264,1.00271646,.0000106,0.0137,47.3009,19.5089,228.2754,0,U,47306,999,1987,0,.169E-5,0
TIANTONG-1 3,2021-003A,2026-06-08T03:30:16.650720,1.00272615,.000352,1.7637,338.7345,104.3376,307.5884,0,U,47321,999,1987,0,-.142E-5,0
TJS-6,2021-010A,2026-06-06T02:20:25.074816,1.00269486,.0005375,0.2892,89.8415,54.6095,323.6795,0,U,47613,999,1970,0,.56E-6,0
SBIRS GEO-5 (USA 315),2021-042A,2026-06-08T00:08:19.074048,1.00271284,.0001633,5.1158,329.0470,121.9585,261.2920,0,U,48618,999,1868,0,-.258E-5,0
FENGYUN 4B,2021-047A,2026-06-05T14:00:51.751584,1.00266147,.00051777,0.1239,75.7773,289.8220,203.2690,0,U,48808,999,1845,0,-.317E-5,0
SXM-8,2021-049A,2026-06-07T14:44:03.697152,1.00270420,.0005048,0.0192,13.5881,19.7069,358.5975,0,U,48838,999,1848,0,-.19E-5,0
TIANLIAN 1-05,2021-063A,2026-06-08T04:54:23.601312,1.00271847,.000092,1.5697,80.7798,319.1569,307.0868,0,U,49011,999,1798,0,.124E-5,0
